NORAD_CAT_ID,OBJECT_NAME,OBJECT_TYPE,EPOCH,MEAN_MOTION,ECCENTRICITY,INCLINATION,RA_OF_ASC_NODE,ARG_OF_PERICENTER,MEAN_ANOMALY,BSTAR,MEAN_MOTION_DOT,MEAN_MOTION_DDOT,TLE_LINE0,TLE_LINE1,TLE_LINE2,SEMIMAJOR_AXIS,PERIOD,APOGEE,PERIGEE,DECAYED
53846.0,STARLINK-4746,PAYLOAD,2024-05-02 07:23:58,15.08851209,0.0001403,53.2157,90.3289,84.4797,275.6355,0.00034197,5.16e-05,0.0,0 STARLINK-4746,1 53846U 22114AE  24123.30831133  .00005160  00000-0  34197-3 0  9999,2 53846  53.2157  90.3289 0001403  84.4797 275.6355 15.08851209 90325,6917.846,95.437,540.682,538.741,0.0
53846.0,STARLINK-4746,PAYLOAD,2024-05-03 04:03:58,15.0884685,0.0001401,53.2162,86.4631,94.2931,265.8221,0.0002032,2.948e-05,0.0,0 STARLINK-4746,1 53846U 22114AE  24124.16943165  .00002948  00000-0  20320-3 0  9997,2 53846  53.2162  86.4631 0001401  94.2931 265.8221 15.08846850 90458,6917.859,95.437,540.694,538.755,0.0
53846.0,STARLINK-4746,PAYLOAD,2024-05-03 07:14:44,15.08851495,0.0001486,53.2166,85.8677,96.2747,263.8414,0.00024878,3.675e-05,0.0,0 STARLINK-4746,1 53846U 22114AE  24124.30190929  .00003675  00000-0  24878-3 0  9995,2 53846  53.2166  85.8677 0001486  96.2747 263.8414 15.08851495 91011,6917.845,95.437,540.738,538.682,0.0
53846.0,STARLINK-4746,PAYLOAD,2024-05-03 21:33:13,15.08834615,0.0001685,53.215,83.1905,88.8557,271.2629,-7.1567e-05,-1.427e-05,0.0,0 STARLINK-4746,1 53846U 22114AE  24124.89807725 -.00001427  00000-0 -71567-4 0  9991,2 53846  53.2150  83.1905 0001685  88.8557 271.2629 15.08834615 90561,6917.897,95.438,540.928,538.596,0.0
53846.0,STARLINK-4746,PAYLOAD,2024-05-04 07:05:33,15.08832181,0.0001369,53.2164,81.4067,90.2333,269.8816,-4.1234e-05,-9.44e-06,0.0,0 STARLINK-4746,1 53846U 22114AE  24125.29552428 -.00000944  00000-0 -41234-4 0  9994,2 53846  53.2164  81.4067 0001369  90.2333 269.8816 15.08832181 90628,6917.904,95.438,540.716,538.822,0.0
53846.0,STARLINK-4746,PAYLOAD,2024-05-05 03:45:33,15.08848179,0.0001316,53.217,77.5417,90.7362,269.3781,0.00023883,3.516e-05,0.0,0 STARLINK-4746,1 53846U 22114AE  24126.15663471  .00003516  00000-0  23883-3 0  9996,2 53846  53.2170  77.5417 0001316  90.7362 269.3781 15.08848179 90753,6917.855,95.437,540.631,538.81,0.0
53846.0,STARLINK-4746,PAYLOAD,2024-05-05 21:14:48,15.08840026,0.0001266,53.2161,74.2731,88.4471,271.6666,0.00025072,3.705e-05,0.0,0 STARLINK-4746,1 53846U 22114AE  24126.88527893  .00003705  00000-0  25072-3 0  9995,2 53846  53.2161  74.2731 0001266  88.4471 271.6666 15.08840026 90868,6917.88,95.438,540.621,538.87,0.0
53846.0,STARLINK-4746,PAYLOAD,2024-05-06 13:08:38,15.08848611,0.0001335,53.2181,71.2982,87.7456,272.3689,0.00017978,2.575e-05,0.0,0 STARLINK-4746,1 53846U 22114AE  24127.54767344  .00002575  00000-0  17978-3 0  9996,2 53846  53.2181  71.2982 0001335  87.7456 272.3689 15.08848611 91500,6917.854,95.437,540.643,538.796,0.0
53846.0,STARLINK-4746,PAYLOAD,2024-05-07 05:02:30,15.08848008,0.0001592,53.2176,68.3251,89.2373,270.8801,2.1618e-05,5.6e-07,0.0,0 STARLINK-4746,1 53846U 22114AE  24128.21007104  .00000056  00000-0  21618-4 0  9991,2 53846  53.2176  68.3251 0001592  89.2373 270.8801 15.08848008 91060,6917.856,95.437,540.822,538.62,0.0
53846.0,STARLINK-4746,PAYLOAD,2024-05-07 12:59:26,15.08841735,0.0001683,53.2187,66.8374,79.4178,280.7004,1.1617e-05,-1.03e-06,0.0,0 STARLINK-4746,1 53846U 22114AE  24128.54127944 -.00000103  00000-0  11617-4 0  9994,2 53846  53.2187  66.8374 0001683  79.4178 280.7004 15.08841735 91117,6917.875,95.437,540.904,538.576,0.0
53846.0,STARLINK-4746,PAYLOAD,2024-05-08 03:17:55,15.08833424,0.0001292,53.2185,64.1608,83.7635,276.3505,-5.5472e-05,-1.17e-05,0.0,0 STARLINK-4746,1 53846U 22114AE  24129.13744731 -.00001170  00000-0 -55472-4 0  9992,2 53846  53.2185  64.1608 0001292  83.7635 276.3505 15.08833424 91201,6917.9,95.438,540.659,538.872,0.0
53846.0,STARLINK-4746,PAYLOAD,2024-05-08 22:22:32,15.08842206,0.0001444,53.2184,60.5923,78.675,281.4405,0.00011184,1.493e-05,0.0,0 STARLINK-4746,1 53846U 22114AE  24129.93231950  .00001493  00000-0  11184-3 0  9991,2 53846  53.2184  60.5923 0001444  78.6750 281.4405 15.08842206 91866,6917.874,95.437,540.738,538.74,0.0
53846.0,STARLINK-4746,PAYLOAD,2024-05-09 04:44:04,15.08858548,0.0001269,53.2182,59.4022,83.8857,276.228,0.00038437,5.838e-05,0.0,0 STARLINK-4746,1 53846U 22114AE  24130.19727380  .00005838  00000-0  38437-3 0  9995,2 53846  53.2182  59.4022 0001269  83.8857 276.2280 15.08858548 91366,6917.824,95.436,540.567,538.811,0.0
53846.0,STARLINK-4746,PAYLOAD,2024-05-09 12:41:00,15.08844496,0.0001099,53.2165,57.9167,111.0136,249.0974,0.00028208,4.205e-05,0.0,0 STARLINK-4746,1 53846U 22114AE  24130.52847890  .00004205  00000-0  28208-3 0  9993,2 53846  53.2165  57.9167 0001099 111.0136 249.0974 15.08844496 91416,6917.867,95.437,540.492,538.971,0.0
53846.0,STARLINK-4746,PAYLOAD,2024-05-10 12:31:47,15.08842129,0.0001315,53.2164,53.4584,91.556,268.5583,0.00015055,2.109e-05,0.0,0 STARLINK-4746,1 53846U 22114AE  24131.52208138  .00002109  00000-0  15055-3 0  9997,2 53846  53.2164  53.4584 0001315  91.5560 268.5583 15.08842129 91562,6917.874,95.437,540.649,538.829,0.0
53846.0,STARLINK-4746,PAYLOAD,2024-05-10 22:04:06,15.08843961,0.0001508,53.2175,51.6731,87.5449,272.5716,4.9993e-05,5.08e-06,0.0,0 STARLINK-4746,1 53846U 22114AE  24131.91952178  .00000508  00000-0  49993-4 0  9990,2 53846  53.2175  51.6731 0001508  87.5449 272.5716 15.08843961 92168,6917.868,95.437,540.776,538.69,0.0
53846.0,STARLINK-4746,PAYLOAD,2024-05-11 04:25:37,15.08881199,0.0001117,53.2183,50.4813,79.7973,280.3145,0.00074789,0.00011648,0.0,0 STARLINK-4746,1 53846U 22114AE  24132.18446291  .00011648  00000-0  74789-3 0  9991,2 53846  53.2183  50.4813 0001117  79.7973 280.3145 15.08881199 91668,6917.754,95.435,540.392,538.847,0.0
53846.0,STARLINK-4746,PAYLOAD,2024-05-11 21:54:52,15.08863446,0.0001237,53.2179,47.2129,113.0194,247.0929,0.00034603,5.227e-05,0.0,0 STARLINK-4746,1 53846U 22114AE  24132.91310217  .00005227  00000-0  34603-3 0  9997,2 53846  53.2179  47.2129 0001237 113.0194 247.0929 15.08863446 91774,6917.809,95.436,540.529,538.818,0.0
53846.0,STARLINK-4746,PAYLOAD,2024-05-12 04:16:26,15.08785804,0.0001543,53.2179,46.021,89.1501,270.9668,-0.0011293,-0.00018189,0.0,0 STARLINK-4746,1 53846U 22114AE  24133.17808966 -.00018189  00000-0 -11293-2 0  9991,2 53846  53.2179  46.0210 0001543  89.1501 270.9668 15.08785804 91818,6918.046,95.441,540.979,538.844,0.0
53846.0,STARLINK-4746,PAYLOAD,2024-05-12 10:38:00,15.0878917,0.0001599,53.2195,44.8351,99.6853,260.432,-0.0009282,-0.00015009,0.0,0 STARLINK-4746,1 53846U 22114AE  24133.44305729 -.00015009  00000-0 -92820-3 0  9994,2 53846  53.2195  44.8351 0001599  99.6853 260.4320 15.08789170 92398,6918.036,95.441,541.007,538.795,0.0
53846.0,STARLINK-4746,PAYLOAD,2024-05-12 21:45:42,15.08790717,5.02e-05,53.2181,42.7519,165.3632,194.7375,-0.00060531,-9.895e-05,0.0,0 STARLINK-4746,1 53846U 22114AE  24133.90674619 -.00009895  00000-0 -60531-3 0  9992,2 53846  53.2181  42.7519 0000502 165.3632 194.7375 15.08790717 91921,6918.031,95.441,540.243,539.549,0.0
53846.0,STARLINK-4746,PAYLOAD,2024-05-13 00:56:28,15.08826049,0.0001199,53.2175,42.1541,81.6925,278.4203,0.00025071,3.703e-05,0.0,0 STARLINK-4746,1 53846U 22114AE  24134.03921938  .00003703  00000-0  25071-3 0  9996,2 53846  53.2175  42.1541 0001199  81.6925 278.4203 15.08826049 91941,6917.923,95.438,540.617,538.959,0.0
53846.0,STARLINK-4746,PAYLOAD,2024-05-13 10:28:47,15.08833827,0.0001479,53.2187,40.3701,77.4912,282.6245,0.00068024,0.00010553,0.0,0 STARLINK-4746,1 53846U 22114AE  24134.43666424  .00010553  00000-0  68024-3 0  9992,2 53846  53.2187  40.3701 0001479  77.4912 282.6245 15.08833827 92544,6917.899,95.438,540.787,538.741,0.0
53846.0,STARLINK-4746,PAYLOAD,2024-05-13 18:25:43,15.08832881,0.0001378,53.2178,38.8838,80.631,279.4838,0.0011607,0.00018229,0.0,0 STARLINK-4746,1 53846U 22114AE  24134.76786750  .00018229  00000-0  11607-2 0  9995,2 53846  53.2178  38.8838 0001378  80.6310 279.4838 15.08832881 92599,6917.902,95.438,540.72,538.814,0.0
53846.0,STARLINK-4746,PAYLOAD,2024-05-14 02:22:38,15.08858057,0.000141,53.2178,37.3981,85.1321,274.9832,0.0012234,0.00019246,0.0,0 STARLINK-4746,1 53846U 22114AE  24135.09905714  .00019246  00000-0  12234-2 0  9992,2 53846  53.2178  37.3981 0001410  85.1321 274.9832 15.08858057 92105,6917.825,95.436,540.666,538.715,0.0
53846.0,STARLINK-4746,PAYLOAD,2024-05-14 10:19:34,15.08851789,0.0002677,53.2181,35.9119,75.5102,284.6187,0.00070193,0.00010905,0.0,0 STARLINK-4746,1 53846U 22114AE  24135.43025952  .00010905  00000-0  70193-3 0  9999,2 53846  53.2181  35.9119 0002677  75.5102 284.6187 15.08851789 92153,6917.844,95.437,541.561,537.857,0.0
53846.0,STARLINK-4746,PAYLOAD,2024-05-14 21:27:15,15.08846859,0.000155,53.2175,33.8295,76.3351,283.7813,0.00014078,1.954e-05,0.0,0 STARLINK-4746,1 53846U 22114AE  24135.89393211  .00001954  00000-0  14078-3 0  9999,2 53846  53.2175  33.8295 0001550  76.3351 283.7813 15.08846859 92767,6917.859,95.437,540.797,538.652,0.0
53846.0,STARLINK-4746,PAYLOAD,2024-05-15 02:13:24,15.08875375,0.0001422,53.2174,32.938,90.0776,270.0379,0.00044833,6.861e-05,0.0,0 STARLINK-4746,1 53846U 22114AE  24136.09263997  .00006861  00000-0  44833-3 0  9993,2 53846  53.2174  32.9380 0001422  90.0776 270.0379 15.08875375 92258,6917.772,95.435,540.621,538.654,0.0
53846.0,STARLINK-4746,PAYLOAD,2024-05-15 10:10:20,15.08846306,0.0001702,53.2169,31.4517,92.2541,267.8646,-4.3352e-05,-9.78e-06,0.0,0 STARLINK-4746,1 53846U 22114AE  24136.42384865 -.00000978  00000-0 -43352-4 0  9999,2 53846  53.2169  31.4517 0001702  92.2541 267.8646 15.08846306 92302,6917.861,95.437,540.904,538.549,0.0
53846.0,STARLINK-4746,PAYLOAD,2024-05-15 21:18:03,15.08821279,0.0001582,53.2164,29.3716,104.9213,255.1955,-7.8956e-05,-1.544e-05,0.0,0 STARLINK-4746,1 53846U 22114AE  24136.88753800 -.00001544  00000-0 -78956-4 0  9996,2 53846  53.2164  29.3716 0001582 104.9213 255.1955 15.08821279 92379,6917.938,95.439,540.897,538.708,0.0
